NORAD_CAT_ID,OBJECT_NAME,OBJECT_TYPE,EPOCH,MEAN_MOTION,ECCENTRICITY,INCLINATION,RA_OF_ASC_NODE,ARG_OF_PERICENTER,MEAN_ANOMALY,BSTAR,MEAN_MOTION_DOT,MEAN_MOTION_DDOT,TLE_LINE0,TLE_LINE1,TLE_LINE2,SEMIMAJOR_AXIS,PERIOD,APOGEE,PERIGEE,DECAYED
54790.0,STARLINK-5445,PAYLOAD,2024-01-16 22:31:05,15.08846007,0.0001859,53.2176,302.8151,122.6703,237.4469,0.00012027,1.627e-05,0.0,0 STARLINK-5445,1 54790U 22175AJ  24016.93825300  .00001627  00000-0  12027-3 0  9996,2 54790  53.2176 302.8151 0001859 122.6703 237.4469 15.08846007 61961,6917.862,95.437,541.013,538.441,0.0
54790.0,STARLINK-5445,PAYLOAD,2024-01-17 00:06:28,15.08847841,0.000182,53.2175,302.5181,118.3719,241.7457,0.00017141,2.442e-05,0.0,0 STARLINK-5445,1 54790U 22175AJ  24017.00449268  .00002442  00000-0  17141-3 0  9998,2 54790  53.2175 302.5181 0001820 118.3719 241.7457 15.08847841 61970,6917.856,95.437,540.98,538.462,0.0
54790.0,STARLINK-5445,PAYLOAD,2024-01-17 22:21:52,15.0883859,0.0001694,53.2173,298.3567,108.6108,251.5068,8.2064e-05,1.018e-05,0.0,0 STARLINK-5445,1 54790U 22175AJ  24017.93185813  .00001018  00000-0  82064-4 0  9998,2 54790  53.2173 298.3567 0001694 108.6108 251.5068 15.08838590 62116,6917.885,95.438,540.922,538.578,0.0
54790.0,STARLINK-5445,PAYLOAD,2024-01-17 23:57:15,15.08838636,0.0001658,53.2171,298.0593,110.5608,249.5562,7.4483e-05,8.98e-06,0.0,0 STARLINK-5445,1 54790U 22175AJ  24017.99809831  .00000898  00000-0  74483-4 0  9998,2 54790  53.2171 298.0593 0001658 110.5608 249.5562 15.08838636 59963,6917.885,95.438,540.897,538.603,0.0
54790.0,STARLINK-5445,PAYLOAD,2024-01-18 22:12:39,15.0883424,0.000235,53.2186,293.9069,138.3208,221.7964,4.0676e-05,3.59e-06,0.0,0 STARLINK-5445,1 54790U 22175AJ  24018.92546224  .00000359  00000-0  40676-4 0  9995,2 54790  53.2186 293.9069 0002350 138.3208 221.7964 15.08834240 62267,6917.898,95.438,541.389,538.137,0.0
54790.0,STARLINK-5445,PAYLOAD,2024-01-18 23:48:04,15.0881194,0.0001239,53.2179,293.6069,97.3933,262.72,-0.00029443,-4.967e-05,0.0,0 STARLINK-5445,1 54790U 22175AJ  24018.99171327 -.00004967  00000-0 -29443-3 0  9999,2 54790  53.2179 293.6069 0001239  97.3933 262.7200 15.08811940 60112,6917.966,95.439,540.688,538.974,0.0
54790.0,STARLINK-5445,PAYLOAD,2024-01-19 04:34:13,15.08816982,9.58e-05,53.2179,292.7221,83.5758,276.5343,-0.00031502,-5.294e-05,0.0,0 STARLINK-5445,1 54790U 22175AJ  24019.19043344 -.00005294  00000-0 -31502-3 0  9992,2 54790  53.2179 292.7221 0000958  83.5758 276.5343 15.08816982 60146,6917.951,95.439,540.478,539.153,0.0
54790.0,STARLINK-5445,PAYLOAD,2024-01-19 22:03:27,15.08838686,0.000118,53.2177,289.4409,109.2403,250.8717,0.00023059,3.384e-05,0.0,0 STARLINK-5445,1 54790U 22175AJ  24019.91906882  .00003384  00000-0  23059-3 0  9991,2 54790  53.2177 289.4409 0001180 109.2403 250.8717 15.08838686 62413,6917.884,95.438,540.566,538.933,0.0
54790.0,STARLINK-5445,PAYLOAD,2024-01-20 02:49:35,15.08860048,0.0001087,53.2166,288.547,109.5216,250.5894,0.0004743,7.273e-05,0.0,0 STARLINK-5445,1 54790U 22175AJ  24020.11777757  .00007273  00000-0  47430-3 0  9992,2 54790  53.2166 288.5470 0001087 109.5216 250.5894 15.08860048 60283,6917.819,95.436,540.436,538.932,0.0
54790.0,STARLINK-5445,PAYLOAD,2024-01-20 21:54:15,15.0880745,0.0001216,53.2163,284.9829,40.7612,319.3471,-0.00010008,-1.879e-05,0.0,0 STARLINK-5445,1 54790U 22175AJ  24020.91267617 -.00001879  00000-0 -10008-3 0  9998,2 54790  53.2163 284.9829 0001216  40.7612 319.3471 15.08807450 62564,6917.98,95.44,540.686,539.004,0.0
54790.0,STARLINK-5445,PAYLOAD,2024-01-21 02:40:24,15.08816992,0.0001075,53.2163,284.0856,71.4515,288.6593,5.7586e-05,6.28e-06,0.0,0 STARLINK-5445,1 54790U 22175AJ  24021.11139332  .00000628  00000-0  57586-4 0  9995,2 54790  53.2163 284.0856 0001075  71.4515 288.6593 15.08816992 60439,6917.951,95.439,540.559,539.072,0.0
54790.0,STARLINK-5445,PAYLOAD,2024-01-21 21:45:00,15.08848548,8.99e-05,53.2164,280.5177,79.3086,280.8007,-0.00018751,-3.271e-05,0.0,0 STARLINK-5445,1 54790U 22175AJ  24021.90625534 -.00003271  00000-0 -18751-3 0  9995,2 54790  53.2164 280.5177 0000899  79.3086 280.8007 15.08848548 62719,6917.854,95.437,540.341,539.097,0.0
54790.0,STARLINK-5445,PAYLOAD,2024-01-22 02:31:09,15.08858093,9.84e-05,53.2168,279.6235,78.2275,281.8828,4.3226e-06,-2.19e-06,0.0,0 STARLINK-5445,1 54790U 22175AJ  24022.10496942 -.00000219  00000-0  43226-5 0  9992,2 54790  53.2168 279.6235 0000984  78.2275 281.8828 15.08858093 60581,6917.825,95.436,540.371,539.009,0.0
54790.0,STARLINK-5445,PAYLOAD,2024-01-22 21:35:48,15.08833804,0.0001633,53.2181,276.0522,99.1418,260.9759,0.00030191,4.519e-05,0.0,0 STARLINK-5445,1 54790U 22175AJ  24022.89986654  .00004519  00000-0  30191-3 0  9993,2 54790  53.2181 276.0522 0001633  99.1418 260.9759 15.08833804 62866,6917.899,95.438,540.894,538.635,0.0
54790.0,STARLINK-5445,PAYLOAD,2024-01-22 23:11:11,15.08835943,0.0001662,53.2187,275.7477,133.4654,226.6477,0.0003091,4.634e-05,0.0,0 STARLINK-5445,1 54790U 22175AJ  24022.96610387  .00004634  00000-0  30910-3 0  9995,2 54790  53.2187 275.7477 0001662 133.4654 226.6477 15.08835943 60717,6917.893,95.438,540.908,538.608,0.0
54790.0,STARLINK-5445,PAYLOAD,2024-01-23 23:01:58,15.08853099,0.0001344,53.2167,271.2956,93.354,266.7606,0.00031511,4.732e-05,0.0,0 STARLINK-5445,1 54790U 22175AJ  24023.95969961  .00004732  00000-0  31511-3 0  9997,2 54790  53.2167 271.2956 0001344  93.3540 266.7606 15.08853099 63021,6917.84,95.437,540.635,538.776,0.0
54790.0,STARLINK-5445,PAYLOAD,2024-01-24 19:41:59,15.08839885,0.0001707,53.2168,267.4347,122.0607,238.0551,0.00031893,4.791e-05,0.0,0 STARLINK-5445,1 54790U 22175AJ  24024.82082468  .00004791  00000-0  31893-3 0  9990,2 54790  53.2168 267.4347 0001707 122.0607 238.0551 15.08839885 60991,6917.881,95.438,540.927,538.565,0.0
54790.0,STARLINK-5445,PAYLOAD,2024-01-24 21:17:22,15.08839205,0.0001598,53.2168,267.134,119.2138,240.9014,0.00025588,3.787e-05,0.0,0 STARLINK-5445,1 54790U 22175AJ  24024.88706455  .00003787  00000-0  25588-3 0  9993,2 54790  53.2168 267.1340 0001598 119.2138 240.9014 15.08839205 63160,6917.883,95.438,540.853,538.642,0.0
54790.0,STARLINK-5445,PAYLOAD,2024-01-24 22:52:45,15.08840265,0.00014,53.2162,266.8401,101.1096,259.0053,9.8208e-05,1.275e-05,0.0,0 STARLINK-5445,1 54790U 22175AJ  24024.95330601  .00001275  00000-0  98208-4 0  9997,2 54790  53.2162 266.8401 0001400 101.1096 259.0053 15.08840265 63176,6917.88,95.438,540.713,538.776,0.0
54790.0,STARLINK-5445,PAYLOAD,2024-01-25 22:43:32,15.08845341,0.0001347,53.2158,262.3792,97.3376,262.777,7.293e-05,8.73e-06,0.0,0 STARLINK-5445,1 54790U 22175AJ  24025.94690522  .00000873  00000-0  72930-4 0  9995,2 54790  53.2158 262.3792 0001347  97.3376 262.7770 15.08845341 63326,6917.864,95.437,540.661,538.797,0.0
54790.0,STARLINK-5445,PAYLOAD,2024-01-26 22:34:19,15.08844603,0.0001414,53.2159,257.9204,101.4527,258.6624,0.00023261,3.416e-05,0.0,0 STARLINK-5445,1 54790U 22175AJ  24026.94050626  .00003416  00000-0  23261-3 0  9999,2 54790  53.2159 257.9204 0001414 101.4527 258.6624 15.08844603 61314,6917.866,95.437,540.71,538.753,0.0
54790.0,STARLINK-5445,PAYLOAD,2024-01-27 19:14:20,15.08842205,0.0001461,53.2159,254.0551,108.3868,251.7283,7.7151e-05,9.4e-06,0.0,0 STARLINK-5445,1 54790U 22175AJ  24027.80162720  .00000940  00000-0  77151-4 0  9991,2 54790  53.2159 254.0551 0001461 108.3868 251.7283 15.08842205 61448,6917.874,95.437,540.749,538.728,0.0
54790.0,STARLINK-5445,PAYLOAD,2024-01-27 22:25:06,15.08841119,0.000135,53.2155,253.4562,93.5189,266.5957,3.7728e-05,3.13e-06,0.0,0 STARLINK-5445,1 54790U 22175AJ  24027.93410688  .00000313  00000-0  37728-4 0  9994,2 54790  53.2155 253.4562 0001350  93.5189 266.5957 15.08841119 63624,6917.877,95.437,540.676,538.808,0.0
54790.0,STARLINK-5445,PAYLOAD,2024-01-28 00:00:29,15.08840527,0.0001348,53.2155,253.1583,89.584,270.5306,2.5783e-05,1.22e-06,0.0,0 STARLINK-5445,1 54790U 22175AJ  24028.00034721  .00000122  00000-0  25783-4 0  9999,2 54790  53.2155 253.1583 0001348  89.5840 270.5306 15.08840527 63636,6917.879,95.438,540.676,538.811,0.0
54790.0,STARLINK-5445,PAYLOAD,2024-01-28 19:05:08,15.08833168,0.0001385,53.2155,249.5881,91.9774,268.1376,-3.006e-05,-7.66e-06,0.0,0 STARLINK-5445,1 54790U 22175AJ  24028.79523349 -.00000766  00000-0 -30060-4 0  9994,2 54790  53.2155 249.5881 0001385  91.9774 268.1376 15.08833168 61596,6917.901,95.438,540.724,538.808,0.0
54790.0,STARLINK-5445,PAYLOAD,2024-01-28 22:15:54,15.08837031,0.0001398,53.2166,248.9935,90.9552,269.16,3.8152e-05,3.19e-06,0.0,0 STARLINK-5445,1 54790U 22175AJ  24028.92771534  .00000319  00000-0  38152-4 0  9992,2 54790  53.2166 248.9935 0001398  90.9552 269.1600 15.08837031 63774,6917.889,95.438,540.722,538.787,0.0
54790.0,STARLINK-5445,PAYLOAD,2024-01-29 23:42:04,15.08847027,0.0001481,53.2169,244.2333,83.0644,277.0516,0.00015462,2.174e-05,0.0,0 STARLINK-5445,1 54790U 22175AJ  24029.98754631  .00002174  00000-0  15462-3 0  9997,2 54790  53.2169 244.2333 0001481  83.0644 277.0516 15.08847027 61774,6917.859,95.437,540.748,538.699,0.0
54790.0,STARLINK-5445,PAYLOAD,2024-01-30 18:46:42,15.08841863,0.0001175,53.216,240.6617,108.8333,251.2786,5.1161e-05,5.27e-06,0.0,0 STARLINK-5445,1 54790U 22175AJ  24030.78243067  .00000527  00000-0  51161-4 0  9990,2 54790  53.2160 240.6617 0001175 108.8333 251.2786 15.08841863 61899,6917.875,95.437,540.553,538.927,0.0
54790.0,STARLINK-5445,PAYLOAD,2024-01-30 20:22:05,15.08842106,0.0001254,53.2163,240.3621,96.4353,263.6782,5.8282e-05,6.4e-06,0.0,0 STARLINK-5445,1 54790U 22175AJ  24030.84867032  .00000640  00000-0  58282-4 0  9998,2 54790  53.2163 240.3621 0001254  96.4353 263.6782 15.08842106 64062,6917.874,95.437,540.606,538.871,0.0
54790.0,STARLINK-5445,PAYLOAD,2024-01-31 13:51:19,15.08838733,0.0001375,53.216,237.0972,89.0897,271.0252,2.2082e-05,6.4e-07,0.0,0 STARLINK-5445,1 54790U 22175AJ  24031.57731320  .00000064  00000-0  22082-4 0  9998,2 54790  53.2160 237.0972 0001375  89.0897 271.0252 15.08838733 64174,6917.884,95.438,540.7,538.798,0.0
